STARLINK-4276           
1 53179U 22083AZ  26068.54305976  .00000907  00000+0  75071-4 0  9990
2 53179  53.2161 124.3794 0001504  87.0970 273.0194 15.08840608201892
LEMUR-2-MARHISYAM       
1 60536U 24149BW  26068.74036894  .00013075  00000+0  82973-3 0  9990
2 60536  97.6912 151.2662 0003578 107.3271 252.8349 15.09015520 85478
